{"type": "FeatureCollection", "features": [ {"type": "Feature", "properties": {"norad_id": 66717, "name": "FLOCK 4H-14", "group": "last-30-days", "lat": 73.19923796229922, "lon": -84.27386898549133, "alt_km": 502.7342311404627, "timestamp": "2025-12-24T11:32:58.718236+00:00", "meta": {"OBJECT_NAME": "FLOCK 4H-14", "OBJECT_ID": "2025-276BD", "EPOCH": "2025-12-24T03:10:48.996192", "MEAN_MOTION": 15.18360033, "ECCENTRICITY": 0.0001683, "INCLINATION": 97.4413, "RA_OF_ASC_NODE": 69.7324, "ARG_OF_PERICENTER": 131.7021, "MEAN_ANOMALY": 228.4357, "EPHEMERIS_TYPE": 0, "CLASSIFICATION_TYPE": "U", "NORAD_CAT_ID": 66717, "ELEMENT_SET_NO": 999, "REV_AT_EPOCH": 310, "BSTAR": 0.000339, "MEAN_MOTION_DOT": 6.899e-05, "MEAN_MOTION_DDOT": 0}, "tle": {"line1": "1 66717U 25276BD  25358.13251153  .00006899  00000+0  33900-3 0  9992", "line2": "2 66717  97.4413  69.7324 0001683 131.7021 228.4357 15.18360033  3106"}}, "geometry": {"type": "Point", "coordinates": [-84.27386898549133, 73.19923796229922]}}, {"type": "Feature", "properties": {"norad_id": 66718, "name": "FLOCK 4H-15", "group": "last-30-days", "lat": -3.645195128832105, "lon": 70.51018083485167, "alt_km": 518.2898274855406, "timestamp": "2025-12-24T11:32:58.718272+00:00", "meta": {"OBJECT_NAME": "FLOCK 4H-15", "OBJECT_ID": "2025-276BE", "EPOCH": "2025-12-24T03:39:03.820320", "MEAN_MOTION": 15.17119999, "ECCENTRICITY": 0.0003081, "INCLINATION": 97.4417, "RA_OF_ASC_NODE": 69.7099, "ARG_OF_PERICENTER": 261.8302, "MEAN_ANOMALY": 98.2581, "EPHEMERIS_TYPE": 0, "CLASSIFICATION_TYPE": "U", "NORAD_CAT_ID": 66718, "ELEMENT_SET_NO": 999, "REV_AT_EPOCH": 385, "BSTAR": 0.00052794, "MEAN_MOTION_DOT": 0.00010409, "MEAN_MOTION_DDOT": 0}, "tle": {"line1": "1 66718U 25276BE  25358.15212755  .00010409  00000+0  52794-3 0  9994", "line2": "2 66718  97.4417  69.7099 0003081 261.8302  98.2581 15.17119999  3857"}}, "geometry": {"type": "Point", "coordinates": [70.51018083485167, -3.645195128832105]}}, {"type": "Feature", "properties": {"norad_id": 66719, "name": "FLOCK 4H-16", "group": "last-30-days", "lat": 8.108581639668156, "lon": 68.97670122626349, "alt_km": 534.4959411191785, "timestamp": "2025-12-24T11:32:58.718283+00:00", "meta": {"OBJECT_NAME": "FLOCK 4H-16", "OBJECT_ID": "2025-276BF", "EPOCH": "2025-12-23T22:51:28.478880", "MEAN_MOTION": 15.18016632, "ECCENTRICITY": 0.0030777, "INCLINATION": 97.4432, "RA_OF_ASC_NODE": 69.5238, "ARG_OF_PERICENTER": 186.1197, "MEAN_ANOMALY": 173.9666, "EPHEMERIS_TYPE": 0, "CLASSIFICATION_TYPE": "U", "NORAD_CAT_ID": 66719, "ELEMENT_SET_NO": 999, "REV_AT_EPOCH": 382, "BSTAR": 0.0066822, "MEAN_MOTION_DOT": 0.0013998, "MEAN_MOTION_DDOT": 0}, "tle": {"line1": "1 66719U 25276BF  25357.95241295  .00139980  00000+0  66822-2 0  9995", "line2": "2 66719  97.4432  69.5238 0030777 186.1197 173.9666 15.18016632  3824"}}, "geometry": {"type": "Point", "coordinates": [68.97670122626349, 8.108581639668156]}}, {"type": "Feature", "properties": {"norad_id": 66720, "name": "FLOCK 4H-17", "group": "last-30-days", "lat": 78.70265415313796, "lon": 29.19682048058575, "alt_km": 504.6227186784863, "timestamp": "2025-12-24T11:32:58.718293+00:00", "meta": {"OBJECT_NAME": "FLOCK 4H-17", "OBJECT_ID": "2025-276BG", "EPOCH": "2025-12-24T04:00:01.998720", "MEAN_MOTION": 15.18060983, "ECCENTRICITY": 0.000266, "INCLINATION": 97.444, "RA_OF_ASC_NODE": 69.7687, "ARG_OF_PERICENTER": 183.2931, "MEAN_ANOMALY": 340.3157, "EPHEMERIS_TYPE": 0, "CLASSIFICATION_TYPE": "U", "NORAD_CAT_ID": 66720, "ELEMENT_SET_NO": 999, "REV_AT_EPOCH": 130, "BSTAR": 0.0025898, "MEAN_MOTION_DOT": 0.00053025, "MEAN_MOTION_DDOT": 0}, "tle": {"line1": "1 66720U 25276BG  25358.16668980  .00053025  00000+0  25898-2 0  9998", "line2": "2 66720  97.4440  69.7687 0002660 183.2931 340.3157 15.18060983  1303"}}, "geometry": {"type": "Point", "coordinates": [29.19682048058575, 78.70265415313796]}}, {"type": "Feature", "properties": {"norad_id": 66721, "name": "FLOCK 4H-18", "group": "last-30-days", "lat": -0.5059608040075652, "lon": 70.08488497193645, "alt_km": 517.3682658102653, "timestamp": "2025-12-24T11:32:58.718303+00:00", "meta": {"OBJECT_NAME": "FLOCK 4H-18", "OBJECT_ID": "2025-276BH", "EPOCH": "2025-12-24T03:38:14.377056", "MEAN_MOTION": 15.17155855, "ECCENTRICITY": 0.0002522, "INCLINATION": 97.4378, "RA_OF_ASC_NODE": 69.6952, "ARG_OF_PERICENTER": 277.5097, "MEAN_ANOMALY": 82.5849, "EPHEMERIS_TYPE": 0, "CLASSIFICATION_TYPE": "U", "NORAD_CAT_ID": 66721, "ELEMENT_SET_NO": 999, "REV_AT_EPOCH": 385, "BSTAR": 0.00049666, "MEAN_MOTION_DOT": 9.797e-05, "MEAN_MOTION_DDOT": 0}, "tle": {"line1": "1 66721U 25276BH  25358.15155529  .00009797  00000+0  49666-3 0  9995", "line2": "2 66721  97.4378  69.6952 0002522 277.5097  82.5849 15.17155855  3852"}}, "geometry": {"type": "Point", "coordinates": [70.08488497193645, -0.5059608040075652]}}, {"type": "Feature", "properties": {"norad_id": 66722, "name": "FLOCK 4H-19", "group": "last-30-days", "lat": 79.08461275335418, "lon": -67.28914595476617, "alt_km": 502.64920721513045, "timestamp": "2025-12-24T11:32:58.718313+00:00", "meta": {"OBJECT_NAME": "FLOCK 4H-19", "OBJECT_ID": "2025-276BJ", "EPOCH": "2025-12-24T03:12:38.896128", "MEAN_MOTION": 15.18260569, "ECCENTRICITY": 0.0002505, "INCLINATION": 97.4387, "RA_OF_ASC_NODE": 69.7204, "ARG_OF_PERICENTER": 150.3882, "MEAN_ANOMALY": 209.7494, "EPHEMERIS_TYPE": 0, "CLASSIFICATION_TYPE": "U", "NORAD_CAT_ID": 66722, "ELEMENT_SET_NO": 999, "REV_AT_EPOCH": 314, "BSTAR": 0.00070941, "MEAN_MOTION_DOT": 0.00014483, "MEAN_MOTION_DDOT": 0}, "tle": {"line1": "1 66722U 25276BJ  25358.13378352  .00014483  00000+0  70941-3 0  9993", "line2": "2 66722  97.4387  69.7204 0002505 150.3882 209.7494 15.18260569  3146"}}, "geometry": {"type": "Point", "coordinates": [-67.28914595476617, 79.08461275335418]}}, {"type": "Feature", "properties": {"norad_id": 66723, "name": "FLOCK 4H-20", "group": "last-30-days", "lat": 76.09590818830803, "lon": -78.04859928071072, "alt_km": 502.7845451050016, "timestamp": "2025-12-24T11:32:58.718323+00:00", "meta": {"OBJECT_NAME": "FLOCK 4H-20", "OBJECT_ID": "2025-276BK", "EPOCH": "2025-12-24T03:11:40.354080", "MEAN_MOTION": 15.18320859, "ECCENTRICITY": 0.0002948, "INCLINATION": 97.4422, "RA_OF_ASC_NODE": 69.7356, "ARG_OF_PERICENTER": 165.8804, "MEAN_ANOMALY": 194.2513, "EPHEMERIS_TYPE": 0, "CLASSIFICATION_TYPE": "U", "NORAD_CAT_ID": 66723, "ELEMENT_SET_NO": 999, "REV_AT_EPOCH": 310, "BSTAR": 0.00054084, "MEAN_MOTION_DOT": 0.0001104, "MEAN_MOTION_DDOT": 0}, "tle": {"line1": "1 66723U 25276BK  25358.13310595  .00011040  00000+0  54084-3 0  9995", "line2": "2 66723  97.4422  69.7356 0002948 165.8804 194.2513 15.18320859  3106"}}, "geometry": {"type": "Point", "coordinates": [-78.04859928071072, 76.09590818830803]}}, {"type": "Feature", "properties": {"norad_id": 66724, "name": "FLOCK 4H-21", "group": "last-30-days", "lat": 73.07366627044625, "lon": -84.51031391818164, "alt_km": 502.3029107644852, "timestamp": "2025-12-24T11:32:58.718336+00:00", "meta": {"OBJECT_NAME": "FLOCK 4H-21", "OBJECT_ID": "2025-276BL", "EPOCH": "2025-12-24T03:10:48.400032", "MEAN_MOTION": 15.18440767, "ECCENTRICITY": 0.0002536, "INCLINATION": 97.4387, "RA_OF_ASC_NODE": 69.7218, "ARG_OF_PERICENTER": 154.8956, "MEAN_ANOMALY": 205.2402, "EPHEMERIS_TYPE": 0, "CLASSIFICATION_TYPE": "U", "NORAD_CAT_ID": 66724, "ELEMENT_SET_NO": 999, "REV_AT_EPOCH": 310, "BSTAR": 0.0023487, "MEAN_MOTION_DOT": 0.00048579, "MEAN_MOTION_DDOT": 0}, "tle": {"line1": "1 66724U 25276BL  25358.13250463  .00048579  00000+0  23487-2 0  9992", "line2": "2 66724  97.4387  69.7218 0002536 154.8956 205.2402 15.18440767  3104"}}, "geometry": {"type": "Point", "coordinates": [-84.51031391818164, 73.07366627044625]}}, {"type": "Feature", "properties": {"norad_id": 66725, "name": "FLOCK 4H-22", "group": "last-30-days", "lat": 26.712740396853164, "lon": 66.25736079513713, "alt_km": 512.7199908727198, "timestamp": "2025-12-24T11:32:58.718346+00:00", "meta": {"OBJECT_NAME": "FLOCK 4H-22", "OBJECT_ID": "2025-276BM", "EPOCH": "2025-12-24T03:31:06.506976", "MEAN_MOTION": 15.17505025, "ECCENTRICITY": 0.0001526, "INCLINATION": 97.4375, "RA_OF_ASC_NODE": 69.698, "ARG_OF_PERICENTER": 283.2924, "MEAN_ANOMALY": 76.814, "EPHEMERIS_TYPE": 0, "CLASSIFICATION_TYPE": "U", "NORAD_CAT_ID": 66725, "ELEMENT_SET_NO": 999, "REV_AT_EPOCH": 385, "BSTAR": 0.00034307, "MEAN_MOTION_DOT": 6.812e-05, "MEAN_MOTION_DDOT": 0}, "tle": {"line1": "1 66725U 25276BM  25358.14660309  .00006812  00000+0  34307-3 0  9996", "line2": "2 66725  97.4375  69.6980 0001526 283.2924  76.8140 15.17505025  3858"}}, "geometry": {"type": "Point", "coordinates": [66.25736079513713, 26.712740396853164]}}, {"type": "Feature", "properties": {"norad_id": 66726, "name": "FLOCK 4H-23", "group": "last-30-days", "lat": 7.874584575153785, "lon": 69.00735467432978, "alt_km": 517.5688954437019, "timestamp": "2025-12-24T11:32:58.718358+00:00", "meta": {"OBJECT_NAME": "FLOCK 4H-23", "OBJECT_ID": "2025-276BN", "EPOCH": "2025-12-24T03:36:19.285344", "MEAN_MOTION": 15.17981768, "ECCENTRICITY": 0.0008026, "INCLINATION": 97.4432, "RA_OF_ASC_NODE": 69.7178, "ARG_OF_PERICENTER": 221.2156, "MEAN_ANOMALY": 138.8472, "EPHEMERIS_TYPE": 0, "CLASSIFICATION_TYPE": "U", "NORAD_CAT_ID": 66726, "ELEMENT_SET_NO": 999, "REV_AT_EPOCH": 385, "BSTAR": 0.026184, "MEAN_MOTION_DOT": 0.00568353, "MEAN_MOTION_DDOT": 0}, "tle": {"line1": "1 66726U 25276BN  25358.15022321  .00568353  00000+0  26184-1 0  9999", "line2": "2 66726  97.4432  69.7178 0008026 221.2156 138.8472 15.17981768  3853"}}, "geometry": {"type": "Point", "coordinates": [69.00735467432978, 7.874584575153785]}}]}